STARLINK-31683          
1 59573U 24076K   26068.16360077 -.00000824  00000+0 -20416-4 0  9992
2 59573  43.0049  11.8462 0001170 281.5522  78.5198 15.27573131106423
FLOCK 4G-6              
1 62660U 25009BD  26068.71061311  .00012261  00000+0  45910-3 0  9991
2 62660  97.3980 150.7943 0002380 348.2637  11.8546 15.27432125121307
